Longitude,latitude,CNN,Street_name,ST_TYPE,NHOOD,CNNTEXT,shape,EndLongitude,EndLatitude
-122.4030282,37.78702442,164000,03RD,ST,Financial District South,164000,LINESTRING,-122.4025752,37.78667821
-122.3979429,37.7829979,171000,03RD,ST,Financial District South,171000,LINESTRING,-122.3973855,37.78255359
-122.3989303,37.78378493,170000,03RD,ST,Financial District South,170000,LINESTRING,-122.3979429,37.7829979
-122.3963795,37.78175028,174000,03RD,ST,Financial District South,174000,LINESTRING,-122.3958435,37.78132126
-122.4004685,37.78503028,168000,03RD,ST,Financial District South,168000,LINESTRING,-122.3994598,37.78421364
-122.3958435,37.78132126,175000,03RD,ST,Financial District South,175000,LINESTRING,-122.3955178,37.78106214
-122.3973855,37.78255359,172000,03RD,ST,Financial District South,172000,LINESTRING,-122.3968414,37.78211912
-122.3968414,37.78211912,173000,03RD,ST,Financial District South,173000,LINESTRING,-122.3963795,37.78175028
-122.3994598,37.78421364,169000,03RD,ST,Financial District South,169000,LINESTRING,-122.3989303,37.78378493
-122.4020254,37.78624815,166000,03RD,ST,Financial District South,166000,LINESTRING,-122.4014898,37.78582921
-122.3955178,37.78106214,176000,03RD,ST,Financial District South,176000,LINESTRING,-122.395065,37.78070056
-122.3946315,37.78035439,178000,03RD,ST,Financial District South,178000,LINESTRING,-122.3943,37.78008973
-122.4034308,37.78764185,163000,03RD,ST,Financial District South,163000,LINESTRING,-122.4033426,37.78727463
-122.4025752,37.78667821,165000,03RD,ST,Financial District South,165000,LINESTRING,-122.4020254,37.78624815
-122.395065,37.78070056,177000,03RD,ST,Financial District South,177000,LINESTRING,-122.3946315,37.78035439
-122.4014898,37.78582921,167000,03RD,ST,Financial District South,167000,LINESTRING,-122.4004685,37.78503028
-122.4042669,37.78447874,252000,04TH,ST,Financial District South,252000,LINESTRING,-122.4037118,37.78404444
-122.4047951,37.7849083,251000,04TH,ST,Financial District South,251000,LINESTRING,-122.4042669,37.78447874
-122.405831,37.78574399,249000,04TH,ST,Financial District South,249000,LINESTRING,-122.4052357,37.7852651
-122.4037118,37.78404444,253000,04TH,ST,Financial District South,253000,LINESTRING,-122.4027082,37.78325924
-122.4027082,37.78325924,254000,04TH,ST,Financial District South,254000,LINESTRING,-122.4016962,37.78245274
-122.4016962,37.78245274,255000,04TH,ST,Financial District South,255000,LINESTRING,-122.4011597,37.78202427
-122.4006131,37.78158767,257000,04TH,ST,Financial District South,257000,LINESTRING,-122.4001496,37.78121752
-122.4001496,37.78121752,258000,04TH,ST,Financial District South,258000,LINESTRING,-122.3996162,37.78079148
-122.3990796,37.78036289,260000,04TH,ST,Financial District South,260000,LINESTRING,-122.3985995,37.7799794
-122.3985995,37.7799794,261000,04TH,ST,Financial District South,261000,LINESTRING,-122.3980599,37.77956691
-122.3975389,37.77913222,263000,04TH,ST,Financial District South,263000,LINESTRING,-122.3970617,37.77875105
-122.3970617,37.77875105,264000,04TH,ST,Financial District South,264000,LINESTRING,-122.3965306,37.77832683
-122.4052357,37.7852651,250000,04TH,ST,Financial District South,250000,LINESTRING,-122.4047951,37.7849083
-122.4011597,37.78202427,256000,04TH,ST,Financial District South,256000,LINESTRING,-122.4006131,37.78158767
-122.3980599,37.77956691,262000,04TH,ST,Financial District South,262000,LINESTRING,-122.3975389,37.77913222
-122.3996162,37.78079148,259000,04TH,ST,Financial District South,259000,LINESTRING,-122.3990796,37.78036289
-122.475902,37.74678204,919101,19TH,AVE,Inner Parkside,919101,LINESTRING,-122.4758373,37.74667469
-122.4773084,37.76544799,909201,19TH,AVE,Central Sunset,909201,LINESTRING,-122.4773653,37.76531506
-122.4760331,37.74864751,918201,19TH,AVE,Parkside,918201,LINESTRING,-122.4760873,37.74853672
-122.4760331,37.74864751,918101,19TH,AVE,Inner Parkside,918101,LINESTRING,-122.4759617,37.74854202
-122.4761632,37.75051228,917201,19TH,AVE,Parkside,917201,LINESTRING,-122.476216,37.750399
-122.4757732,37.74491872,920101,19TH,AVE,Inner Parkside,920101,LINESTRING,-122.4757072,37.74481161
-122.475902,37.74678204,919201,19TH,AVE,Parkside,919201,LINESTRING,-122.4759541,37.74666955
-122.4757732,37.74491872,920201,19TH,AVE,Parkside,920201,LINESTRING,-122.475824,37.74480645
-122.4764235,37.75424219,915201,19TH,AVE,Central Sunset,915201,LINESTRING,-122.4764798,37.75412936
-122.4771741,37.7635595,910101,19TH,AVE,Inner Sunset,910101,LINESTRING,-122.477101,37.76345536
-122.4770109,37.76169937,911201,19TH,AVE,Central Sunset,911201,LINESTRING,-122.477072,37.7615783
-122.4773084,37.76544799,909101,19TH,AVE,Inner Sunset,909101,LINESTRING,-122.4772409,37.76532056
-122.4766842,37.75796898,913101,19TH,AVE,Inner Sunset,913101,LINESTRING,-122.4766007,37.75790873
-122.4761632,37.75051228,917101,19TH,AVE,Inner Parkside,917101,LINESTRING,-122.4760922,37.75040421
-122.4762922,37.7523786,916201,19TH,AVE,Parkside,916201,LINESTRING,-122.4763432,37.75226301
-122.4762922,37.7523786,916101,19TH,AVE,Inner Parkside,916101,LINESTRING,-122.4762233,37.75226689
-122.4764235,37.75424219,915101,19TH,AVE,Inner Sunset,915101,LINESTRING,-122.4763518,37.75413443
-122.4765543,37.75611022,914201,19TH,AVE,Central Sunset,914201,LINESTRING,-122.4766143,37.75604607
-122.4765543,37.75611022,914101,19TH,AVE,Inner Sunset,914101,LINESTRING,-122.4764863,37.75605012
-122.4766842,37.75796898,913201,19TH,AVE,Central Sunset,913201,LINESTRING,-122.4767499,37.75790362
-122.4768139,37.75983394,912201,19TH,AVE,Central Sunset,912201,LINESTRING,-122.4768809,37.75972185
-122.4768139,37.75983394,912101,19TH,AVE,Inner Sunset,912101,LINESTRING,-122.4767334,37.75972863
-122.4770109,37.76169937,911101,19TH,AVE,Inner Sunset,911101,LINESTRING,-122.476925,37.76158366
-122.4771741,37.7635595,910201,19TH,AVE,Central Sunset,910201,LINESTRING,-122.4772312,37.76344963
-122.4383939,37.78639168,3456000,BUSH,ST,Lower Pacfic Heights,3456000,LINESTRING,-122.4400612,37.78617958
-122.4153719,37.78931985,3441000,BUSH,ST,Downtown - Tenderloin,3441000,LINESTRING,-122.4170169,37.78911018
-122.4318132,37.78723088,3451000,BUSH,ST,Lower Pacfic Heights,3451000,LINESTRING,-122.432386,37.78715776
-122.4301684,37.78744083,3450000,BUSH,ST,Lower Pacfic Heights,3450000,LINESTRING,-122.4318132,37.78723088
-122.428525,37.78765056,3449000,BUSH,ST,Lower Pacfic Heights,3449000,LINESTRING,-122.4301684,37.78744083
-122.4252365,37.78807019,3447000,BUSH,ST,Lower Pacfic Heights,3447000,LINESTRING,-122.4268646,37.78786244
-122.4235941,37.78827973,3446000,BUSH,ST,Van Ness - Civic Center,3446000,LINESTRING,-122.4252365,37.78807019
-122.4137284,37.78952932,3440000,BUSH,ST,Downtown - Tenderloin,3440000,LINESTRING,-122.4153719,37.78931985
-122.4219486,37.78848964,3445000,BUSH,ST,Van Ness - Civic Center,3445000,LINESTRING,-122.4235941,37.78827973
-122.4203069,37.78869905,3444000,BUSH,ST,Van Ness - Civic Center,3444000,LINESTRING,-122.4219486,37.78848964
-122.4186559,37.78890961,3443000,BUSH,ST,Downtown - Tenderloin,3443000,LINESTRING,-122.4203069,37.78869905
-122.4120759,37.78973991,3439000,BUSH,ST,Downtown - Tenderloin,3439000,LINESTRING,-122.4137284,37.78952932
-122.4104332,37.78995142,3438000,BUSH,ST,Downtown - Tenderloin,3438000,LINESTRING,-122.4120759,37.78973991
-122.4087861,37.7901595,3437000,BUSH,ST,Downtown - Tenderloin,3437000,LINESTRING,-122.4104332,37.78995142
-122.4078689,37.79027535,3435000,BUSH,ST,Downtown - Tenderloin,3435000,LINESTRING,-122.4079704,37.79026253
-122.4075005,37.79032189,3434000,BUSH,ST,Downtown - Tenderloin,3434000,LINESTRING,-122.4078689,37.79027535
-122.4071317,37.79036847,3433000,BUSH,ST,Downtown - Tenderloin,3433000,LINESTRING,-122.4075005,37.79032189
-122.4063309,37.79046961,3432000,BUSH,ST,Financial District North,3432000,LINESTRING,-122.4071317,37.79036847
-122.4047673,37.79066708,3430000,BUSH,ST,Financial District North,3430000,LINESTRING,-122.4055737,37.79056524
-122.4043999,37.79071348,3429000,BUSH,ST,Financial District North,3429000,LINESTRING,-122.4047673,37.79066708
-122.4043329,37.79072193,3428000,BUSH,ST,Financial District North,3428000,LINESTRING,-122.4043999,37.79071348
-122.4040307,37.7907601,3427000,BUSH,ST,Financial District North,3427000,LINESTRING,-122.4043329,37.79072193
-122.4036718,37.79080542,3426000,BUSH,ST,Financial District North,3426000,LINESTRING,-122.4040307,37.7907601
-122.4023804,37.79096861,3424000,BUSH,ST,Financial District North,3424000,LINESTRING,-122.4027241,37.79092508
-122.4433703,37.78575858,3459000,BUSH,ST,Lower Pacfic Heights,3459000,LINESTRING,-122.4450199,37.78554867
-122.4417263,37.78596775,3458000,BUSH,ST,Lower Pacfic Heights,3458000,LINESTRING,-122.4433703,37.78575858
-122.4400612,37.78617958,3457000,BUSH,ST,Lower Pacfic Heights,3457000,LINESTRING,-122.4417263,37.78596775
-122.4367466,37.78660104,3455000,BUSH,ST,Lower Pacfic Heights,3455000,LINESTRING,-122.4383939,37.78639168
-122.4334599,37.78702067,3453000,BUSH,ST,Lower Pacfic Heights,3453000,LINESTRING,-122.4351058,37.78681054
-122.432386,37.78715776,3452000,BUSH,ST,Lower Pacfic Heights,3452000,LINESTRING,-122.4334599,37.78702067
-122.4450199,37.78554867,3460000,BUSH,ST,Lower Pacfic Heights,3460000,LINESTRING,-122.4464217,37.78537026
-122.4027241,37.79092508,3425000,BUSH,ST,Financial District North,3425000,LINESTRING,-122.4036718,37.79080542
-122.4055737,37.79056524,3431000,BUSH,ST,Financial District North,3431000,LINESTRING,-122.4063309,37.79046961
-122.4079704,37.79026253,3436000,BUSH,ST,Downtown - Tenderloin,3436000,LINESTRING,-122.4087861,37.7901595
-122.4170169,37.78911018,3442000,BUSH,ST,Downtown - Tenderloin,3442000,LINESTRING,-122.4186559,37.78890961
-122.4268646,37.78786244,3448000,BUSH,ST,Lower Pacfic Heights,3448000,LINESTRING,-122.428525,37.78765056
-122.4351058,37.78681054,3454000,BUSH,ST,Lower Pacfic Heights,3454000,LINESTRING,-122.4367466,37.78660104
-122.4109537,37.80083298,4297000,COLUMBUS,AVE,North Beach,4297000,LINESTRING,-122.4113763,37.80112513
-122.4044122,37.7963021,4288000,COLUMBUS,AVE,Financial District North,4288000,LINESTRING,-122.4052884,37.79690906
-122.4078695,37.79869686,4294000,COLUMBUS,AVE,Telegraph Hill,4294000,LINESTRING,-122.4090144,37.79948982
-122.4129081,37.80218377,4300000,COLUMBUS,AVE,North Beach,4300000,LINESTRING,-122.4137188,37.8027432
-122.4172262,37.80516965,4306000,COLUMBUS,AVE,North Waterfront,4306000,LINESTRING,-122.4183807,37.80597737
-122.4102065,37.8003155,4296000,COLUMBUS,AVE,North Beach,4296000,LINESTRING,-122.4109537,37.80083298
-122.4040685,37.79606404,4287000,COLUMBUS,AVE,Financial District North,4287000,LINESTRING,-122.4044122,37.7963021
-122.4113763,37.80112513,4298000,COLUMBUS,AVE,North Beach,4298000,LINESTRING,-122.4125413,37.80193064
-122.4125413,37.80193064,4299000,COLUMBUS,AVE,North Beach,4299000,LINESTRING,-122.4129081,37.80218377
-122.4137188,37.8027432,4301000,COLUMBUS,AVE,North Beach,4301000,LINESTRING,-122.4148768,37.80354233
-122.4148768,37.80354233,4302000,COLUMBUS,AVE,North Beach,4302000,LINESTRING,-122.4154459,37.80393651
-122.4154459,37.80393651,4303000,COLUMBUS,AVE,North Beach,4303000,LINESTRING,-122.4160514,37.80435595
-122.4070829,37.79815206,4293000,COLUMBUS,AVE,Telegraph Hill,4293000,LINESTRING,-122.4078695,37.79869686
-122.4055129,37.79706459,4290000,COLUMBUS,AVE,Financial District North,4290000,LINESTRING,-122.4062264,37.79755881
-122.4062264,37.79755881,4291000,COLUMBUS,AVE,Financial District North,4291000,LINESTRING,-122.4066679,37.79786461
-122.4090144,37.79948982,4295000,COLUMBUS,AVE,North Beach,4295000,LINESTRING,-122.4102065,37.8003155
-122.4052884,37.79690906,4289000,COLUMBUS,AVE,Financial District North,4289000,LINESTRING,-122.4055129,37.79706459
-122.4160514,37.80435595,4304000,COLUMBUS,AVE,North Beach,4304000,LINESTRING,-122.4168183,37.80488716
-122.4168183,37.80488716,4305000,COLUMBUS,AVE,North Beach,4305000,LINESTRING,-122.4172262,37.80516965
-122.4033169,37.79553183,4286000,COLUMBUS,AVE,Financial District North,4286000,LINESTRING,-122.4040685,37.79606404
-122.4066679,37.79786461,4292000,COLUMBUS,AVE,Telegraph Hill,4292000,LINESTRING,-122.4070829,37.79815206
-122.4428461,37.79997798,4830000,DIVISADERO,ST,Marina,4830000,LINESTRING,-122.4430346,37.80090821
-122.4426479,37.79900005,4829000,DIVISADERO,ST,Marina,4829000,LINESTRING,-122.4428461,37.79997798
-122.4422793,37.79718119,4827000,DIVISADERO,ST,Cow Hollow,4827000,LINESTRING,-122.4424679,37.79811195
-122.4420904,37.79624912,4826000,DIVISADERO,ST,Cow Hollow,4826000,LINESTRING,-122.4422793,37.79718119
-122.4419022,37.79532061,4825000,DIVISADERO,ST,Pacific Heights,4825000,LINESTRING,-122.4420904,37.79624912
-122.4417128,37.79438558,4824000,DIVISADERO,ST,Pacific Heights,4824000,LINESTRING,-122.4419022,37.79532061
-122.4415205,37.79343659,4823000,DIVISADERO,ST,Pacific Heights,4823000,LINESTRING,-122.4417128,37.79438558
-122.4411546,37.79163084,4821000,DIVISADERO,ST,Pacific Heights,4821000,LINESTRING,-122.4413329,37.79251065
-122.4409844,37.79075546,4820000,DIVISADERO,ST,Pacific Heights,4820000,LINESTRING,-122.4411546,37.79163084
-122.4413329,37.79251065,4822000,DIVISADERO,ST,Pacific Heights,4822000,LINESTRING,-122.4415205,37.79343659
-122.4424679,37.79811195,4828000,DIVISADERO,ST,Cow Hollow,4828000,LINESTRING,-122.4426479,37.79900005
-122.4370456,37.77126742,4799201,DIVISADERO,ST,Hayes Valley,4799201,LINESTRING,-122.4370094,37.77134836
-122.4377987,37.77499195,4803101,DIVISADERO,ST,North Panhandle,4803101,LINESTRING,-122.437867,37.77506484
-122.4376106,37.77406165,4802201,DIVISADERO,ST,Alamo Square,4802201,LINESTRING,-122.4375811,37.77415186
-122.4387402,37.77965963,4808101,DIVISADERO,ST,Anza Vista,4808101,LINESTRING,-122.4388118,37.77973086
-122.4379898,37.77592541,4804201,DIVISADERO,ST,Alamo Square,4804201,LINESTRING,-122.4379518,37.77600919
-122.4436025,37.80370494,4834000,DIVISADERO,ST,Marina,4834000,LINESTRING,-122.443792,37.80463787
-122.4374229,37.77313349,4801101,DIVISADERO,ST,North Panhandle,4801101,LINESTRING,-122.437486,37.77321367
-122.4374229,37.77313349,4801201,DIVISADERO,ST,Alamo Square,4801201,LINESTRING,-122.4373896,37.77322922
-122.4376106,37.77406165,4802101,DIVISADERO,ST,North Panhandle,4802101,LINESTRING,-122.4376729,37.77413911
-122.4377987,37.77499195,4803201,DIVISADERO,ST,Alamo Square,4803201,LINESTRING,-122.4377693,37.77507929
-122.4379898,37.77592541,4804101,DIVISADERO,ST,North Panhandle,4804101,LINESTRING,-122.4380611,37.77599659
-122.438177,37.77685589,4805101,DIVISADERO,ST,North Panhandle,4805101,LINESTRING,-122.4382439,37.77692508
-122.438177,37.77685589,4805201,DIVISADERO,ST,Alamo Square,4805201,LINESTRING,-122.4381415,37.77694037
-122.4383655,37.77779419,4806101,DIVISADERO,ST,North Panhandle,4806101,LINESTRING,-122.4384341,37.77787666
-122.4383655,37.77779419,4806201,DIVISADERO,ST,Alamo Square,4806201,LINESTRING,-122.4383322,37.77789081
-122.4385523,37.77872411,4807101,DIVISADERO,ST,North Panhandle,4807101,LINESTRING,-122.4386212,37.77879957
-122.4385523,37.77872411,4807201,DIVISADERO,ST,Western Addition,4807201,LINESTRING,-122.4385169,37.77881077
-122.4387402,37.77965963,4808201,DIVISADERO,ST,Western Addition,4808201,LINESTRING,-122.4386976,37.77974274
-122.4389268,37.78058849,4809101,DIVISADERO,ST,Anza Vista,4809101,LINESTRING,-122.4389925,37.78065189
-122.4389268,37.78058849,4809201,DIVISADERO,ST,Western Addition,4809201,LINESTRING,-122.4388898,37.7806642
-122.4391139,37.78152035,4810101,DIVISADERO,ST,Anza Vista,4810101,LINESTRING,-122.4391778,37.78158298
-122.4391139,37.78152035,4810201,DIVISADERO,ST,Western Addition,4810201,LINESTRING,-122.4390771,37.78159784
-122.4394804,37.78330849,4812101,DIVISADERO,ST,Lower Pacfic Heights,4812101,LINESTRING,-122.4395445,37.78338263
-122.4396387,37.78384659,4812102,DIVISADERO,ST,Lower Pacfic Heights,4812102,LINESTRING,-122.4397127,37.78423068
-122.4394804,37.78330849,4812201,DIVISADERO,ST,Lower Pacfic Heights,4812201,LINESTRING,-122.4394505,37.78339829
-122.4396847,37.78431867,4813101,DIVISADERO,ST,Lower Pacfic Heights,4813101,LINESTRING,-122.4397477,37.78439406
-122.4398726,37.78524753,4814101,DIVISADERO,ST,Lower Pacfic Heights,4814101,LINESTRING,-122.4399337,37.78532982
-122.4398726,37.78524753,4814201,DIVISADERO,ST,Lower Pacfic Heights,4814201,LINESTRING,-122.4398465,37.78534146
-122.4400612,37.78617958,4815101,DIVISADERO,ST,Lower Pacfic Heights,4815101,LINESTRING,-122.4401208,37.78624385
-122.4400612,37.78617958,4815201,DIVISADERO,ST,Lower Pacfic Heights,4815201,LINESTRING,-122.4400294,37.78625908
-122.44025,37.78711246,4816101,DIVISADERO,ST,Lower Pacfic Heights,4816101,LINESTRING,-122.4403121,37.7871868
-122.4404401,37.78806717,4817101,DIVISADERO,ST,Pacific Heights,4817101,LINESTRING,-122.4405022,37.78814151
-122.4404401,37.78806717,4817201,DIVISADERO,ST,Pacific Heights,4817201,LINESTRING,-122.4404063,37.7881522
-122.4406236,37.78899526,4818101,DIVISADERO,ST,Pacific Heights,4818101,LINESTRING,-122.4406812,37.78906666
-122.4406236,37.78899526,4818201,DIVISADERO,ST,Pacific Heights,4818201,LINESTRING,-122.4405956,37.78907606
-122.4408056,37.7898723,4819000,DIVISADERO,ST,Pacific Heights,4819000,LINESTRING,-122.4409844,37.79075546
-122.4392976,37.78245048,4811201,DIVISADERO,ST,Western Addition,4811201,LINESTRING,-122.4392767,37.78253813
-122.4392976,37.78245048,4811101,DIVISADERO,ST,Anza Vista,4811101,LINESTRING,-122.4393699,37.782525
-122.4396847,37.78431867,4813201,DIVISADERO,ST,Lower Pacfic Heights,4813201,LINESTRING,-122.4396549,37.7844074
-122.44025,37.78711246,4816201,DIVISADERO,ST,Lower Pacfic Heights,4816201,LINESTRING,-122.4402161,37.78719749
-122.4372349,37.77220371,4800201,DIVISADERO,ST,Hayes Valley,4800201,LINESTRING,-122.4372034,37.77228604
-122.4372349,37.77220371,4800101,DIVISADERO,ST,Haight Ashbury,4800101,LINESTRING,-122.4372978,37.77227428
-122.4370456,37.77126742,4799101,DIVISADERO,ST,Haight Ashbury,4799101,LINESTRING,-122.4371039,37.7713351
-122.4368489,37.7703429,4798201,DIVISADERO,ST,Hayes Valley,4798201,LINESTRING,-122.4368259,37.77042518
-122.4368489,37.7703429,4798101,DIVISADERO,ST,Buena Vista Park,4798101,LINESTRING,-122.4369207,37.77041218
-122.443792,37.80463787,4835000,DIVISADERO,ST,Marina,4835000,LINESTRING,-122.4439835,37.80558114
-122.4434135,37.80277414,4833000,DIVISADERO,ST,Marina,4833000,LINESTRING,-122.4436025,37.80370494
-122.4432235,37.80183838,4832000,DIVISADERO,ST,Marina,4832000,LINESTRING,-122.4434135,37.80277414
-122.4430346,37.80090821,4831000,DIVISADERO,ST,Marina,4831000,LINESTRING,-122.4432235,37.80183838
-122.4326486,37.77469266,5448000,FELL,ST,Alamo Square,5448000,LINESTRING,-122.4342943,37.77447582
-122.4507867,37.77236766,5459000,FELL,ST,North Panhandle,5459000,LINESTRING,-122.4522422,37.77218057
-122.4491432,37.77257892,5458000,FELL,ST,North Panhandle,5458000,LINESTRING,-122.4507867,37.77236766
-122.4459024,37.77299541,5456000,FELL,ST,North Panhandle,5456000,LINESTRING,-122.4474972,37.77279045
-122.4442162,37.77321207,5455000,FELL,ST,North Panhandle,5455000,LINESTRING,-122.4459024,37.77299541
-122.4425649,37.77342422,5454000,FELL,ST,North Panhandle,5454000,LINESTRING,-122.4442162,37.77321207
-122.4409218,37.7736353,5453000,FELL,ST,North Panhandle,5453000,LINESTRING,-122.4425649,37.77342422
-122.4392768,37.77384712,5452000,FELL,ST,North Panhandle,5452000,LINESTRING,-122.4409218,37.7736353
-122.4260703,37.77552455,5444000,FELL,ST,Hayes Valley,5444000,LINESTRING,-122.427724,37.77531731
-122.427724,37.77531731,5445000,FELL,ST,Hayes Valley,5445000,LINESTRING,-122.4293659,37.77511118
-122.4342943,37.77447582,5449000,FELL,ST,Alamo Square,5449000,LINESTRING,-122.4359403,37.77427668
-122.4195063,37.77636887,5440000,FELL,ST,Van Ness - Civic Center,5440000,LINESTRING,-122.4211484,37.77615876
-122.4211484,37.77615876,5441000,FELL,ST,Van Ness - Civic Center,5441000,LINESTRING,-122.4227876,37.77594986
-122.4227876,37.77594986,5442000,FELL,ST,Hayes Valley,5442000,LINESTRING,-122.4243246,37.77575396
-122.4310115,37.77490283,5447000,FELL,ST,Alamo Square,5447000,LINESTRING,-122.4326486,37.77469266
-122.4243246,37.77575396,5443000,FELL,ST,Hayes Valley,5443000,LINESTRING,-122.4260703,37.77552455
-122.4359403,37.77427668,5450000,FELL,ST,Alamo Square,5450000,LINESTRING,-122.4376106,37.77406165
-122.4293659,37.77511118,5446000,FELL,ST,Alamo Square,5446000,LINESTRING,-122.4310115,37.77490283
-122.4376106,37.77406165,5451000,FELL,ST,North Panhandle,5451000,LINESTRING,-122.4392768,37.77384712
-122.4474972,37.77279045,5457000,FELL,ST,North Panhandle,5457000,LINESTRING,-122.4491432,37.77257892
-122.4524375,37.77218917,5460000,FELL,ST,North Panhandle,5460000,LINESTRING,-122.4539594,37.77199667
-122.4197387,37.7858929,6118000,GEARY,ST,Van Ness - Civic Center,6118000,LINESTRING,-122.4213933,37.7856858
-122.4180881,37.78610104,6117000,GEARY,ST,Downtown - Tenderloin,6117000,LINESTRING,-122.4197387,37.7858929
-122.4131614,37.78672974,6114000,GEARY,ST,Downtown - Tenderloin,6114000,LINESTRING,-122.4148066,37.78651982
-122.4123403,37.78683451,6113000,GEARY,ST,Downtown - Tenderloin,6113000,LINESTRING,-122.4131614,37.78672974
-122.4115158,37.78693971,6112000,GEARY,ST,Downtown - Tenderloin,6112000,LINESTRING,-122.4123403,37.78683451
-122.409874,37.78714914,6111000,GEARY,ST,Downtown - Tenderloin,6111000,LINESTRING,-122.4115158,37.78693971
-122.4082267,37.78735926,6110000,GEARY,ST,Downtown - Tenderloin,6110000,LINESTRING,-122.409874,37.78714914
-122.4279889,37.78495388,6040201,GEARY,BLVD,Lower Pacfic Heights,6040201,LINESTRING,-122.4281021,37.78502653
-122.4312049,37.78456824,6041101,GEARY,BLVD,Western Addition,6041101,LINESTRING,-122.4313799,37.78449075
-122.4312049,37.78456824,6041102,GEARY,BLVD,Western Addition,6041102,LINESTRING,-122.431363,37.78438889
-122.4329142,37.78435506,6041103,GEARY,BLVD,Western Addition,6041103,LINESTRING,-122.4330093,37.78418992
-122.4312049,37.78456824,6041201,GEARY,BLVD,Lower Pacfic Heights,6041201,LINESTRING,-122.4313993,37.78460743
-122.4329142,37.78435506,6041203,GEARY,BLVD,Lower Pacfic Heights,6041203,LINESTRING,-122.4330693,37.78450696
-122.4337754,37.78441251,6041204,GEARY,BLVD,Lower Pacfic Heights,6041204,LINESTRING,-122.4344888,37.7843221
-122.4345621,37.78415186,6042101,GEARY,BLVD,Western Addition,6042101,LINESTRING,-122.4346587,37.78407976
-122.4345621,37.78415186,6042201,GEARY,BLVD,Lower Pacfic Heights,6042201,LINESTRING,-122.4346589,37.78419422
-122.4378479,37.78371764,6043101,GEARY,BLVD,Western Addition,6043101,LINESTRING,-122.4379813,37.78362191
-122.4394804,37.78330849,6044101,GEARY,BLVD,Anza Vista,6044101,LINESTRING,-122.4396041,37.7832226
-122.4394804,37.78330849,6044201,GEARY,BLVD,Lower Pacfic Heights,6044201,LINESTRING,-122.4396326,37.78335959
-122.4427931,37.78288534,6045101,GEARY,BLVD,Anza Vista,6045101,LINESTRING,-122.4428942,37.78280883
-122.4444315,37.7825697,6045102,GEARY,BLVD,Anza Vista,6045102,LINESTRING,-122.4449537,37.78250366
-122.4427931,37.78288534,6045201,GEARY,BLVD,Lower Pacfic Heights,6045201,LINESTRING,-122.4429225,37.78294092
-122.4296064,37.78468162,6040103,GEARY,BLVD,Western Addition,6040103,LINESTRING,-122.429796,37.78465975
-122.444458,37.78277467,6045202,GEARY,BLVD,Lower Pacfic Heights,6045202,LINESTRING,-122.4449464,37.78271729
-122.4378479,37.78371764,6043201,GEARY,BLVD,Lower Pacfic Heights,6043201,LINESTRING,-122.438017,37.78377278
-122.4312049,37.78456824,6041202,GEARY,BLVD,Lower Pacfic Heights,6041202,LINESTRING,-122.4314161,37.78470845
-122.429796,37.78465975,6040104,GEARY,BLVD,Western Addition,6040104,LINESTRING,-122.4310195,37.78451853
-122.4411582,37.78316367,6044202,GEARY,BLVD,Lower Pacfic Heights,6044202,LINESTRING,-122.4427021,37.78297236
-122.4213933,37.7856858,6037000,GEARY,BLVD,Van Ness - Civic Center,6037000,LINESTRING,-122.4230276,37.78548224
-122.4164491,37.78631022,6116000,GEARY,ST,Downtown - Tenderloin,6116000,LINESTRING,-122.4180881,37.78610104
-122.424687,37.78533462,6039101,GEARY,BLVD,Western Addition,6039101,LINESTRING,-122.4248158,37.78526713
-122.4230276,37.78548224,6038000,GEARY,BLVD,Van Ness - Civic Center,6038000,LINESTRING,-122.4235485,37.78541026
-122.4148066,37.78651982,6115000,GEARY,ST,Downtown - Tenderloin,6115000,LINESTRING,-122.4164491,37.78631022
-122.4264301,37.78506174,6039102,GEARY,BLVD,Western Addition,6039102,LINESTRING,-122.4278533,37.78487805
-122.424687,37.78533462,6039201,GEARY,BLVD,Lower Pacfic Heights,6039201,LINESTRING,-122.4248988,37.78544112
-122.4279889,37.78495388,6040102,GEARY,BLVD,Western Addition,6040102,LINESTRING,-122.4280721,37.7848587
-122.4523316,37.72308024,6127201,GENEVA,AVE,Ingleside,6127201,LINESTRING,-122.4518857,37.72274723
-122.4501182,37.7220828,6128201,GENEVA,AVE,Ingleside,6128201,LINESTRING,-122.4500506,37.72200946
-122.4492957,37.72175241,6129101,GENEVA,AVE,Ingleside,6129101,LINESTRING,-122.4491784,37.72175146
-122.4492957,37.72175241,6129201,GENEVA,AVE,Ingleside,6129201,LINESTRING,-122.449229,37.72167944
-122.4466087,37.72072422,6132201,GENEVA,AVE,Outer Mission,6132201,LINESTRING,-122.446509,37.72064478
-122.4451279,37.7200867,6133101,GENEVA,AVE,Mission Terrace,6133101,LINESTRING,-122.445025,37.72006675
-122.4466087,37.72072422,6132101,GENEVA,AVE,Mission Terrace,6132101,LINESTRING,-122.4464499,37.72070763
-122.4484106,37.72139687,6130101,GENEVA,AVE,Ingleside,6130101,LINESTRING,-122.4483165,37.72145496
-122.4477516,37.72115531,6131101,GENEVA,AVE,Ingleside,6131101,LINESTRING,-122.4476587,37.72118657
-122.4501182,37.7220828,6128101,GENEVA,AVE,Ingleside,6128101,LINESTRING,-122.4500024,37.72208243
-122.4477516,37.72115531,6131201,GENEVA,AVE,Ingleside,6131201,LINESTRING,-122.447709,37.7210712
-122.4451279,37.7200867,6133201,GENEVA,AVE,Outer Mission,6133201,LINESTRING,-122.4450445,37.71997278
-122.4515952,37.72299178,6127101,GENEVA,AVE,Ingleside,6127101,LINESTRING,-122.4515888,37.72275253
-122.4484106,37.72139687,6130201,GENEVA,AVE,Ingleside,6130201,LINESTRING,-122.4483963,37.72132705
-122.4054761,37.77616198,6727000,HARRISON,ST,South of Market,6727000,LINESTRING,-122.406296,37.77551415
-122.406296,37.77551415,6728000,HARRISON,ST,South of Market,6728000,LINESTRING,-122.4063685,37.77545681
-122.3996162,37.78079148,6719000,HARRISON,ST,Financial District South,6719000,LINESTRING,-122.4018433,37.77903213
-122.4048962,37.77662017,6726000,HARRISON,ST,South of Market,6726000,LINESTRING,-122.4054761,37.77616198
-122.4074052,37.77463771,6730000,HARRISON,ST,South of Market,6730000,LINESTRING,-122.4077679,37.77435112
-122.4068289,37.77509304,6729000,HARRISON,ST,South of Market,6729000,LINESTRING,-122.4074052,37.77463771
-122.4077679,37.77435112,6731000,HARRISON,ST,South of Market,6731000,LINESTRING,-122.4085163,37.7737597
-122.4085163,37.7737597,6732000,HARRISON,ST,South of Market,6732000,LINESTRING,-122.409683,37.77283776
-122.409683,37.77283776,6733000,HARRISON,ST,South of Market,6733000,LINESTRING,-122.4100768,37.77252644
-122.4018433,37.77903213,6720000,HARRISON,ST,South of Market,6720000,LINESTRING,-122.4023848,37.77860429
-122.4063685,37.77545681,6728001,HARRISON,ST,South of Market,6728001,LINESTRING,-122.4068289,37.77509304
-122.40461,37.77684623,6725000,HARRISON,ST,South of Market,6725000,LINESTRING,-122.4048962,37.77662017
-122.4023848,37.77860429,6721000,HARRISON,ST,South of Market,6721000,LINESTRING,-122.4029612,37.77814896
-122.4029612,37.77814896,6722000,HARRISON,ST,South of Market,6722000,LINESTRING,-122.4035296,37.77769983
-122.4035296,37.77769983,6723000,HARRISON,ST,South of Market,6723000,LINESTRING,-122.4040703,37.7772727
-122.4040703,37.7772727,6724000,HARRISON,ST,South of Market,6724000,LINESTRING,-122.40461,37.77684623
-122.4324473,37.72763721,9158000,MISSION,ST,Mission Terrace,9158000,LINESTRING,-122.4328078,37.72731504
-122.3958134,37.79115281,9086000,MISSION,ST,Financial District South,9086000,LINESTRING,-122.3966897,37.79046107
-122.3966897,37.79046107,9087000,MISSION,ST,Financial District South,9087000,LINESTRING,-122.3975745,37.7897626
-122.3975745,37.7897626,9088000,MISSION,ST,Financial District South,9088000,LINESTRING,-122.3983158,37.78917733
-122.4042669,37.78447874,9096001,MISSION,ST,Financial District South,9096001,LINESTRING,-122.4048648,37.78400661
-122.4048648,37.78400661,9096002,MISSION,ST,Financial District South,9096002,LINESTRING,-122.4060238,37.7830914
-122.4060238,37.7830914,9096003,MISSION,ST,Financial District South,9096003,LINESTRING,-122.4064794,37.78273164
-122.4476724,37.71074852,9191000,MISSION,ST,Outer Mission,9191000,LINESTRING,-122.448377,37.71037271
-122.4087087,37.78097118,9100000,MISSION,ST,South of Market,9100000,LINESTRING,-122.4109366,37.77921169
-122.3931813,37.79323049,9083000,MISSION,ST,South Beach,9083000,LINESTRING,-122.3940596,37.79253722
-122.4395004,37.71846723,9175201,MISSION,ST,Mission Terrace,9175201,LINESTRING,-122.439557,37.71844572
-122.4416912,37.7155727,9180000,MISSION,ST,Outer Mission,9180000,LINESTRING,-122.4417995,37.71542968
-122.4439516,37.71336209,9186000,MISSION,ST,Outer Mission,9186000,LINESTRING,-122.4445711,37.71278343
-122.448377,37.71037271,9192000,MISSION,ST,Outer Mission,9192000,LINESTRING,-122.448931,37.71007404
-122.4190115,37.75819979,9122002,MISSION,ST,Inner Mission,9122002,LINESTRING,-122.418901,37.7570354
-122.4181353,37.74904129,9128000,MISSION,ST,Inner Mission,9128000,LINESTRING,-122.4180936,37.74860536
-122.4208937,37.74403763,9134000,MISSION,ST,Bernal Heights North,9134000,LINESTRING,-122.4214855,37.74312266
-122.4230899,37.74064189,9141000,MISSION,ST,Bernal Heights South,9141000,LINESTRING,-122.4235802,37.73988371
-122.4247026,37.73536987,9147201,MISSION,ST,Bernal Heights South,9147201,LINESTRING,-122.4248777,37.73523851
-122.4293044,37.73074217,9151101,MISSION,ST,Excelsior,9151101,LINESTRING,-122.4292941,37.73068109
-122.4308093,37.72922785,9154101,MISSION,ST,Excelsior,9154101,LINESTRING,-122.4308172,37.72914726
-122.3949402,37.79184209,9085000,MISSION,ST,Financial District South,9085000,LINESTRING,-122.3958134,37.79115281
-122.4526647,37.70880634,9197000,MISSION,ST,Outer Mission,9197000,LINESTRING,-122.4542811,37.70825596
-122.4329118,37.72717755,9159000,MISSION,ST,Mission Terrace,9159000,LINESTRING,-122.4333574,37.7265882
-122.4333574,37.7265882,9160000,MISSION,ST,Mission Terrace,9160000,LINESTRING,-122.4336236,37.72623624
-122.4339824,37.72576179,9162000,MISSION,ST,Mission Terrace,9162000,LINESTRING,-122.4344257,37.72517548
-122.4344257,37.72517548,9163000,MISSION,ST,Mission Terrace,9163000,LINESTRING,-122.4347984,37.72468255
-122.4348704,37.72458771,9165000,MISSION,ST,Mission Terrace,9165000,LINESTRING,-122.4353126,37.72400491
-122.4353126,37.72400491,9166000,MISSION,ST,Mission Terrace,9166000,LINESTRING,-122.4353851,37.7239094
-122.4353851,37.7239094,9167000,MISSION,ST,Mission Terrace,9167000,LINESTRING,-122.4359769,37.72312996
-122.4360401,37.72304447,9169000,MISSION,ST,Mission Terrace,9169000,LINESTRING,-122.4364682,37.72246522
-122.4364682,37.72246522,9170000,MISSION,ST,Mission Terrace,9170000,LINESTRING,-122.4371495,37.721575
-122.4371495,37.721575,9171101,MISSION,ST,Excelsior,9171101,LINESTRING,-122.4371509,37.72152081
-122.4371495,37.721575,9171201,MISSION,ST,Mission Terrace,9171201,LINESTRING,-122.4372091,37.7215496
-122.4374611,37.72116355,9172101,MISSION,ST,Excelsior,9172101,LINESTRING,-122.4374698,37.72109876
-122.4383294,37.72001553,9173101,MISSION,ST,Excelsior,9173101,LINESTRING,-122.4383282,37.71996383
-122.4383294,37.72001553,9173201,MISSION,ST,Mission Terrace,9173201,LINESTRING,-122.4383887,37.7199905
-122.4388635,37.71930936,9174101,MISSION,ST,Excelsior,9174101,LINESTRING,-122.4388615,37.71925864
-122.4388635,37.71930936,9174201,MISSION,ST,Mission Terrace,9174201,LINESTRING,-122.4389217,37.7192857
-122.3985643,37.78898117,9090000,MISSION,ST,Financial District South,9090000,LINESTRING,-122.3993585,37.78835417
-122.3993585,37.78835417,9091000,MISSION,ST,Financial District South,9091000,LINESTRING,-122.399798,37.78800716
-122.399798,37.78800716,9092000,MISSION,ST,Financial District South,9092000,LINESTRING,-122.4005031,37.7874505
-122.4005031,37.7874505,9093000,MISSION,ST,Financial District South,9093000,LINESTRING,-122.4012615,37.78685172
-122.4012615,37.78685172,9094000,MISSION,ST,Financial District South,9094000,LINESTRING,-122.4020254,37.78624815
-122.4064794,37.78273164,9097000,MISSION,ST,South of Market,9097000,LINESTRING,-122.4071644,37.78219072
-122.4072547,37.78211942,9099000,MISSION,ST,South of Market,9099000,LINESTRING,-122.4087087,37.78097118
-122.4109366,37.77921169,9101000,MISSION,ST,South of Market,9101000,LINESTRING,-122.4124133,37.77804533
-122.4124133,37.77804533,9102000,MISSION,ST,South of Market,9102000,LINESTRING,-122.4131577,37.77745742
-122.4131577,37.77745742,9103000,MISSION,ST,South of Market,9103000,LINESTRING,-122.4141069,37.77670769
-122.414711,37.77623052,9105000,MISSION,ST,South of Market,9105000,LINESTRING,-122.415128,37.7758897
-122.415128,37.7758897,9106000,MISSION,ST,South of Market,9106000,LINESTRING,-122.4154848,37.77560726
-122.4154848,37.77560726,9107000,MISSION,ST,South of Market,9107000,LINESTRING,-122.4159082,37.77527206
-122.4159082,37.77527206,9108000,MISSION,ST,South of Market,9108000,LINESTRING,-122.4171041,37.77432529
-122.4180302,37.77347442,9109102,MISSION,ST,South of Market,9109102,LINESTRING,-122.4184094,37.7731109
-122.4171041,37.77432529,9109201,MISSION,ST,South of Market,9109201,LINESTRING,-122.4172331,37.77426859
-122.4186182,37.77305345,9110000,MISSION,ST,South of Market,9110000,LINESTRING,-122.4186947,37.7727935
-122.4196455,37.77100577,9111000,MISSION,ST,South of Market,9111000,LINESTRING,-122.4197585,37.7706726
-122.4197585,37.7706726,9111001,MISSION,ST,South of Market,9111001,LINESTRING,-122.4198535,37.77039281
-122.4200083,37.77011145,9112101,MISSION,ST,Inner Mission,9112101,LINESTRING,-122.4198988,37.76989336
-122.4200321,37.76904545,9113000,MISSION,ST,Inner Mission,9113000,LINESTRING,-122.4199815,37.76827365
-122.4199815,37.76827365,9114000,MISSION,ST,Inner Mission,9114000,LINESTRING,-122.4198252,37.7666736
-122.4198252,37.7666736,9115000,MISSION,ST,Inner Mission,9115000,LINESTRING,-122.419669,37.76505134
-122.419669,37.76505134,9116000,MISSION,ST,Inner Mission,9116000,LINESTRING,-122.4195127,37.76342927
-122.4195127,37.76342927,9117000,MISSION,ST,Inner Mission,9117000,LINESTRING,-122.4194763,37.76305084
-122.4194437,37.76271287,9119000,MISSION,ST,Inner Mission,9119000,LINESTRING,-122.4193593,37.76183586
-122.4193593,37.76183586,9120000,MISSION,ST,Inner Mission,9120000,LINESTRING,-122.419206,37.76023535
-122.419206,37.76023535,9121000,MISSION,ST,Inner Mission,9121000,LINESTRING,-122.4190526,37.75863257
-122.4190526,37.75863257,9122001,MISSION,ST,Inner Mission,9122001,LINESTRING,-122.4190115,37.75819979
-122.3924993,37.79376881,9082000,MISSION,ST,South Beach,9082000,LINESTRING,-122.3931813,37.79323049
-122.3940596,37.79253722,9084000,MISSION,ST,South Beach,9084000,LINESTRING,-122.3949402,37.79184209
-122.4395004,37.71846723,9175101,MISSION,ST,Excelsior,9175101,LINESTRING,-122.4394968,37.71841861
-122.4401066,37.71766531,9176101,MISSION,ST,Excelsior,9176101,LINESTRING,-122.4401326,37.71758675
-122.4401066,37.71766531,9176201,MISSION,ST,Mission Terrace,9176201,LINESTRING,-122.4401856,37.71762355
-122.4404177,37.71724462,9177000,MISSION,ST,Mission Terrace,9177000,LINESTRING,-122.4410196,37.71645955
-122.4410196,37.71645955,9178000,MISSION,ST,Outer Mission,9178000,LINESTRING,-122.4415543,37.71575344
-122.4415543,37.71575344,9179000,MISSION,ST,Outer Mission,9179000,LINESTRING,-122.4416912,37.7155727
-122.4417995,37.71542968,9181000,MISSION,ST,Outer Mission,9181000,LINESTRING,-122.4418955,37.71530826
-122.442565,37.71466062,9182000,MISSION,ST,Outer Mission,9182000,LINESTRING,-122.4426615,37.7145672
-122.4426615,37.7145672,9183000,MISSION,ST,Outer Mission,9183000,LINESTRING,-122.4433456,37.71392819
-122.4433456,37.71392819,9184000,MISSION,ST,Outer Mission,9184000,LINESTRING,-122.443706,37.71359151
-122.443706,37.71359151,9185000,MISSION,ST,Outer Mission,9185000,LINESTRING,-122.4439516,37.71336209
-122.4445711,37.71278343,9187000,MISSION,ST,Outer Mission,9187000,LINESTRING,-122.4447433,37.71262222
-122.4447433,37.71262222,9188000,MISSION,ST,Outer Mission,9188000,LINESTRING,-122.4455285,37.71188657
-122.4460911,37.71159202,9189000,MISSION,ST,Outer Mission,9189000,LINESTRING,-122.4463833,37.71143615
-122.4463833,37.71143615,9190000,MISSION,ST,Outer Mission,9190000,LINESTRING,-122.4476724,37.71074852
-122.4493087,37.7099462,9193000,MISSION,ST,Outer Mission,9193000,LINESTRING,-122.4500955,37.70967991
-122.4500955,37.70967991,9194000,MISSION,ST,Outer Mission,9194000,LINESTRING,-122.4504989,37.70954337
-122.4504989,37.70954337,9195000,MISSION,ST,Outer Mission,9195000,LINESTRING,-122.4508837,37.70941274
-122.4508837,37.70941274,9196000,MISSION,ST,Outer Mission,9196000,LINESTRING,-122.4526647,37.70880634
-122.418901,37.7570354,9123000,MISSION,ST,Inner Mission,9123000,LINESTRING,-122.4187476,37.75543694
-122.4187476,37.75543694,9124000,MISSION,ST,Inner Mission,9124000,LINESTRING,-122.4185939,37.75383659
-122.4185939,37.75383659,9125000,MISSION,ST,Inner Mission,9125000,LINESTRING,-122.4184453,37.75223945
-122.4184453,37.75223945,9126000,MISSION,ST,Inner Mission,9126000,LINESTRING,-122.4182879,37.75063965
-122.4182879,37.75063965,9127000,MISSION,ST,Inner Mission,9127000,LINESTRING,-122.4181353,37.74904129
-122.4182212,37.74816569,9129000,MISSION,ST,Bernal Heights North,9129000,LINESTRING,-122.4191213,37.74677514
-122.4191213,37.74677514,9130000,MISSION,ST,Bernal Heights North,9130000,LINESTRING,-122.4195051,37.74618268
-122.4195051,37.74618268,9131000,MISSION,ST,Bernal Heights North,9131000,LINESTRING,-122.4198858,37.7455951
-122.4198858,37.7455951,9132000,MISSION,ST,Bernal Heights North,9132000,LINESTRING,-122.4200191,37.74538902
-122.4200191,37.74538902,9133000,MISSION,ST,Bernal Heights North,9133000,LINESTRING,-122.4208937,37.74403763
-122.4214855,37.74312266,9135000,MISSION,ST,Bernal Heights North,9135000,LINESTRING,-122.4216804,37.74282117
-122.4216804,37.74282117,9136000,MISSION,ST,Bernal Heights North,9136000,LINESTRING,-122.4219688,37.7423754
-122.4219688,37.7423754,9137000,MISSION,ST,Bernal Heights North,9137000,LINESTRING,-122.4220838,37.74219755
-122.4220838,37.74219755,9138000,MISSION,ST,Bernal Heights North,9138000,LINESTRING,-122.4223665,37.74176049
-122.4223665,37.74176049,9139000,MISSION,ST,Bernal Heights North,9139000,LINESTRING,-122.4228406,37.74102741
-122.4228406,37.74102741,9140000,MISSION,ST,Bernal Heights South,9140000,LINESTRING,-122.4230899,37.74064189
-122.4235802,37.73988371,9142000,MISSION,ST,Bernal Heights South,9142000,LINESTRING,-122.4237898,37.73955973
-122.4239488,37.73884328,9143000,MISSION,ST,Bernal Heights South,9143000,LINESTRING,-122.4240401,37.73740625
-122.4020254,37.78624815,9095101,MISSION,ST,Financial District South,9095101,LINESTRING,-122.4020817,37.78612626
-122.4020254,37.78624815,9095201,MISSION,ST,Financial District South,9095201,LINESTRING,-122.4021528,37.78618631
-122.4336236,37.72623624,9161000,MISSION,ST,Mission Terrace,9161000,LINESTRING,-122.4339824,37.72576179
-122.4359769,37.72312996,9168000,MISSION,ST,Mission Terrace,9168000,LINESTRING,-122.4360401,37.72304447
-122.4374611,37.72116355,9172201,MISSION,ST,Mission Terrace,9172201,LINESTRING,-122.4375331,37.72112179
-122.3983158,37.78917733,9089000,MISSION,ST,Financial District South,9089000,LINESTRING,-122.3985643,37.78898117
-122.4071644,37.78219072,9098000,MISSION,ST,South of Market,9098000,LINESTRING,-122.4072547,37.78211942
-122.4141069,37.77670769,9104000,MISSION,ST,South of Market,9104000,LINESTRING,-122.414711,37.77623052
-122.4171041,37.77432529,9109101,MISSION,ST,South of Market,9109101,LINESTRING,-122.4171865,37.77422633
-122.4200083,37.77011145,9112201,MISSION,ST,Inner Mission,9112201,LINESTRING,-122.4201529,37.7698851
-122.4194763,37.76305084,9118000,MISSION,ST,Inner Mission,9118000,LINESTRING,-122.4194437,37.76271287
-122.4240401,37.73740625,9144000,MISSION,ST,Bernal Heights South,9144000,LINESTRING,-122.4240634,37.73723973
-122.4242351,37.73673748,9145000,MISSION,ST,Bernal Heights South,9145000,LINESTRING,-122.4244663,37.73606117
-122.4244663,37.73606117,9146000,MISSION,ST,Bernal Heights South,9146000,LINESTRING,-122.4247026,37.73536987
-122.4257918,37.734278,9148101,MISSION,ST,Bernal Heights South,9148101,LINESTRING,-122.4257906,37.734235
-122.4257918,37.734278,9148201,MISSION,ST,Bernal Heights South,9148201,LINESTRING,-122.4258517,37.73426216
-122.4261145,37.73395448,9149101,MISSION,ST,Bernal Heights South,9149101,LINESTRING,-122.4261177,37.73390682
-122.4261145,37.73395448,9149201,MISSION,ST,Bernal Heights South,9149201,LINESTRING,-122.4261752,37.73393767
-122.4263912,37.73367502,9150000,MISSION,ST,Bernal Heights South,9150000,LINESTRING,-122.4293044,37.73074217
-122.4293044,37.73074217,9151201,MISSION,ST,Mission Terrace,9151201,LINESTRING,-122.4293778,37.73071987
-122.4301109,37.72993059,9152101,MISSION,ST,Excelsior,9152101,LINESTRING,-122.4300811,37.72988914
-122.4301109,37.72993059,9152201,MISSION,ST,Mission Terrace,9152201,LINESTRING,-122.430158,37.72993473
-122.4301812,37.72985983,9153101,MISSION,ST,Excelsior,9153101,LINESTRING,-122.4301859,37.72978371
-122.4301812,37.72985983,9153201,MISSION,ST,Mission Terrace,9153201,LINESTRING,-122.4302604,37.72983171
-122.4308093,37.72922785,9154201,MISSION,ST,Mission Terrace,9154201,LINESTRING,-122.4308779,37.72920944
-122.4312938,37.72872955,9155000,MISSION,ST,Mission Terrace,9155000,LINESTRING,-122.4318008,37.72824947
-122.4318008,37.72824947,9156000,MISSION,ST,Mission Terrace,9156000,LINESTRING,-122.4323633,37.72771681
-122.4323633,37.72771681,9157000,MISSION,ST,Mission Terrace,9157000,LINESTRING,-122.4324473,37.72763721
-122.4035013,37.78512185,9095202,MISSION,ST,Financial District South,9095202,LINESTRING,-122.4041807,37.78458555
-122.4241365,37.77482479,9753000,OAK,ST,Hayes Valley,9753000,LINESTRING,-122.4258885,37.77459879
-122.422598,37.7750207,9752000,OAK,ST,Hayes Valley,9752000,LINESTRING,-122.4241365,37.77482479
-122.4522418,37.77122983,9770000,OAK,ST,Haight Ashbury,9770000,LINESTRING,-122.453782,37.77102195
-122.4506002,37.77146014,9769000,OAK,ST,Haight Ashbury,9769000,LINESTRING,-122.4518707,37.77129874
-122.4473124,37.77187774,9767000,OAK,ST,Haight Ashbury,9767000,LINESTRING,-122.448958,37.77166874
-122.4457167,37.77208039,9766000,OAK,ST,Haight Ashbury,9766000,LINESTRING,-122.4473124,37.77187774
-122.4440243,37.77229529,9765000,OAK,ST,Haight Ashbury,9765000,LINESTRING,-122.4457167,37.77208039
-122.442378,37.77250432,9764000,OAK,ST,Haight Ashbury,9764000,LINESTRING,-122.4440243,37.77229529
-122.4390886,37.77292198,9762000,OAK,ST,Haight Ashbury,9762000,LINESTRING,-122.4407351,37.77271287
-122.4374229,37.77313349,9761000,OAK,ST,Haight Ashbury,9761000,LINESTRING,-122.4390886,37.77292198
-122.4357515,37.77334571,9760000,OAK,ST,Hayes Valley,9760000,LINESTRING,-122.4374229,37.77313349
-122.434109,37.77354938,9759000,OAK,ST,Hayes Valley,9759000,LINESTRING,-122.4357515,37.77334571
-122.4324671,37.77375699,9758000,OAK,ST,Hayes Valley,9758000,LINESTRING,-122.434109,37.77354938
-122.4291783,37.77418142,9756000,OAK,ST,Hayes Valley,9756000,LINESTRING,-122.4308247,37.77397252
-122.4275464,37.77438847,9755000,OAK,ST,Hayes Valley,9755000,LINESTRING,-122.4291783,37.77418142
-122.4258885,37.77459879,9754000,OAK,ST,Hayes Valley,9754000,LINESTRING,-122.4275464,37.77438847
-122.4193969,37.77542222,9750000,OAK,ST,Van Ness - Civic Center,9750000,LINESTRING,-122.420795,37.77524891
-122.4209599,37.77523234,9751000,OAK,ST,Van Ness - Civic Center,9751000,LINESTRING,-122.4210973,37.77521853
-122.4308247,37.77397252,9757000,OAK,ST,Hayes Valley,9757000,LINESTRING,-122.432351,37.77377883
-122.4407351,37.77271287,9763000,OAK,ST,Haight Ashbury,9763000,LINESTRING,-122.442378,37.77250432
-122.448958,37.77166874,9768000,OAK,ST,Haight Ashbury,9768000,LINESTRING,-122.4506002,37.77146014
-122.4270597,37.7887869,10481000,PINE,ST,Lower Pacfic Heights,10481000,LINESTRING,-122.4287121,37.78857707
-122.425423,37.7889947,10480000,PINE,ST,Lower Pacfic Heights,10480000,LINESTRING,-122.4270597,37.7887869
-122.4237811,37.78920314,10479000,PINE,ST,Van Ness - Civic Center,10479000,LINESTRING,-122.425423,37.7889947
-122.4204934,37.78962044,10477000,PINE,ST,Van Ness - Civic Center,10477000,LINESTRING,-122.4221352,37.78941206
-122.4188427,37.78982993,10476000,PINE,ST,Downtown - Tenderloin,10476000,LINESTRING,-122.4204934,37.78962044
-122.4172048,37.79004514,10475000,PINE,ST,Downtown - Tenderloin,10475000,LINESTRING,-122.4188427,37.78982993
-122.4142966,37.79041474,10473000,PINE,ST,Downtown - Tenderloin,10473000,LINESTRING,-122.4155591,37.7902543
-122.4122662,37.79067278,10471000,PINE,ST,Downtown - Tenderloin,10471000,LINESTRING,-122.4139159,37.79046311
-122.410998,37.79083323,10470000,PINE,ST,Downtown - Tenderloin,10470000,LINESTRING,-122.4122662,37.79067278
-122.4106229,37.7908807,10469000,PINE,ST,Downtown - Tenderloin,10469000,LINESTRING,-122.410998,37.79083323
-122.4089763,37.791089,10468000,PINE,ST,Downtown - Tenderloin,10468000,LINESTRING,-122.4106229,37.7908807
-122.4080604,37.79120485,10467000,PINE,ST,Downtown - Tenderloin,10467000,LINESTRING,-122.4089763,37.791089
-122.4057419,37.7914981,10465000,PINE,ST,Financial District North,10465000,LINESTRING,-122.4073229,37.79129814
-122.4054411,37.79153615,10464000,PINE,ST,Financial District North,10464000,LINESTRING,-122.4057419,37.7914981
-122.4045245,37.79165206,10463000,PINE,ST,Financial District North,10463000,LINESTRING,-122.4054411,37.79153615
-122.4042198,37.79169058,10462000,PINE,ST,Financial District North,10462000,LINESTRING,-122.4045245,37.79165206
-122.4038687,37.79173499,10461000,PINE,ST,Financial District North,10461000,LINESTRING,-122.4042198,37.79169058
-122.4452085,37.7864809,10493000,PINE,ST,Lower Pacfic Heights,10493000,LINESTRING,-122.4466105,37.7863023
-122.4435598,37.78669092,10492000,PINE,ST,Lower Pacfic Heights,10492000,LINESTRING,-122.4452085,37.7864809
-122.4419156,37.78690033,10491000,PINE,ST,Lower Pacfic Heights,10491000,LINESTRING,-122.4435598,37.78669092
-122.44025,37.78711246,10490000,PINE,ST,Lower Pacfic Heights,10490000,LINESTRING,-122.4419156,37.78690033
-122.4155591,37.7902543,10474000,PINE,ST,Downtown - Tenderloin,10474000,LINESTRING,-122.4172048,37.79004514
-122.4369354,37.7875325,10488000,PINE,ST,Lower Pacfic Heights,10488000,LINESTRING,-122.4385816,37.7873249
-122.4025713,37.79189894,10460000,PINE,ST,Financial District North,10460000,LINESTRING,-122.4038687,37.79173499
-122.4073229,37.79129814,10466000,PINE,ST,Downtown - Tenderloin,10466000,LINESTRING,-122.4080604,37.79120485
-122.4139159,37.79046311,10472000,PINE,ST,Downtown - Tenderloin,10472000,LINESTRING,-122.4142966,37.79041474
-122.4221352,37.78941206,10478000,PINE,ST,Van Ness - Civic Center,10478000,LINESTRING,-122.4237811,37.78920314
-122.4385816,37.7873249,10489000,PINE,ST,Lower Pacfic Heights,10489000,LINESTRING,-122.44025,37.78711246
-122.4352931,37.78774117,10487000,PINE,ST,Lower Pacfic Heights,10487000,LINESTRING,-122.4369354,37.7875325
-122.4303559,37.78836831,10483000,PINE,ST,Lower Pacfic Heights,10483000,LINESTRING,-122.4320033,37.78815907
-122.4287121,37.78857707,10482000,PINE,ST,Lower Pacfic Heights,10482000,LINESTRING,-122.4303559,37.78836831
-122.4336471,37.78795027,10486000,PINE,ST,Lower Pacfic Heights,10486000,LINESTRING,-122.4352931,37.78774117
-122.4328256,37.78805463,10485000,PINE,ST,Lower Pacfic Heights,10485000,LINESTRING,-122.4336471,37.78795027
-122.4320033,37.78815907,10484000,PINE,ST,Lower Pacfic Heights,10484000,LINESTRING,-122.4328256,37.78805463
-122.4193969,37.77542222,13143102,VAN NESS,AVE,Van Ness - Civic Center,13143102,LINESTRING,-122.4194915,37.77589419
-122.4194915,37.77589419,13143103,VAN NESS,AVE,Van Ness - Civic Center,13143103,LINESTRING,-122.4195646,37.77626152
-122.4192556,37.77514707,13143201,VAN NESS,AVE,Van Ness - Civic Center,13143201,LINESTRING,-122.4192023,37.77528386
-122.4195063,37.77636887,13144201,VAN NESS,AVE,Van Ness - Civic Center,13144201,LINESTRING,-122.4194486,37.77647585
-122.4196936,37.77729986,13145101,VAN NESS,AVE,Van Ness - Civic Center,13145101,LINESTRING,-122.4197885,37.77738743
-122.4196936,37.77729986,13145201,VAN NESS,AVE,Van Ness - Civic Center,13145201,LINESTRING,-122.4196378,37.7774068
-122.4197116,37.77777015,13145202,VAN NESS,AVE,Van Ness - Civic Center,13145202,LINESTRING,-122.419788,37.7781459
-122.4198832,37.77825102,13146101,VAN NESS,AVE,Van Ness - Civic Center,13146101,LINESTRING,-122.419968,37.77831213
-122.4198832,37.77825102,13146201,VAN NESS,AVE,Van Ness - Civic Center,13146201,LINESTRING,-122.4198165,37.77834245
-122.4202472,37.7800747,13147201,VAN NESS,AVE,Van Ness - Civic Center,13147201,LINESTRING,-122.4201729,37.78021313
-122.4202555,37.78057622,13147202,VAN NESS,AVE,Van Ness - Civic Center,13147202,LINESTRING,-122.4203361,37.78093089
-122.4204395,37.78103084,13148101,VAN NESS,AVE,Van Ness - Civic Center,13148101,LINESTRING,-122.420552,37.78112567
-122.4204395,37.78103084,13148201,VAN NESS,AVE,Van Ness - Civic Center,13148201,LINESTRING,-122.420379,37.78114113
-122.4204519,37.78150997,13148202,VAN NESS,AVE,Van Ness - Civic Center,13148202,LINESTRING,-122.4205242,37.78187548
-122.4251095,37.80414585,13173201,VAN NESS,AVE,Russian Hill,13173201,LINESTRING,-122.4250259,37.8042521
-122.4206383,37.78196077,13149201,VAN NESS,AVE,Van Ness - Civic Center,13149201,LINESTRING,-122.4205695,37.78207248
-122.4210084,37.78382412,13151201,VAN NESS,AVE,Van Ness - Civic Center,13151201,LINESTRING,-122.4209547,37.78393967
-122.420817,37.78289412,13150101,VAN NESS,AVE,Van Ness - Civic Center,13150101,LINESTRING,-122.4209013,37.7829772
-122.4209771,37.78335207,13150102,VAN NESS,AVE,Van Ness - Civic Center,13150102,LINESTRING,-122.4210498,37.78371175
-122.420817,37.78289412,13150201,VAN NESS,AVE,Van Ness - Civic Center,13150201,LINESTRING,-122.4207547,37.78299579
-122.4208319,37.78337049,13150202,VAN NESS,AVE,Van Ness - Civic Center,13150202,LINESTRING,-122.4209046,37.78372409
-122.421171,37.78428329,13151102,VAN NESS,AVE,Van Ness - Civic Center,13151102,LINESTRING,-122.4212427,37.78463521
-122.4254773,37.80595898,15101000,VAN NESS,AVE,Marina,15101000,LINESTRING,-122.4254876,37.80600996
-122.4219549,37.78800118,13155102,VAN NESS,AVE,Van Ness - Civic Center,13155102,LINESTRING,-122.4220322,37.78838336
-122.4217581,37.78754814,13155201,VAN NESS,AVE,Van Ness - Civic Center,13155201,LINESTRING,-122.4216745,37.78765437
-122.4217499,37.78802721,13155202,VAN NESS,AVE,Van Ness - Civic Center,13155202,LINESTRING,-122.4218272,37.78840951
-122.4221454,37.78894262,13156102,VAN NESS,AVE,Van Ness - Civic Center,13156102,LINESTRING,-122.4222189,37.78930584
-122.4219486,37.78848964,13156201,VAN NESS,AVE,Van Ness - Civic Center,13156201,LINESTRING,-122.4218649,37.78859593
-122.4219404,37.78896877,13156202,VAN NESS,AVE,Van Ness - Civic Center,13156202,LINESTRING,-122.4220138,37.78933186
-122.4221352,37.78941206,13157101,VAN NESS,AVE,Van Ness - Civic Center,13157101,LINESTRING,-122.4222566,37.78949226
-122.4221352,37.78941206,13157201,VAN NESS,AVE,Van Ness - Civic Center,13157201,LINESTRING,-122.4220516,37.78951829
-122.4208105,37.78241705,13149102,VAN NESS,AVE,Van Ness - Civic Center,13149102,LINESTRING,-122.4208819,37.78277613
-122.422329,37.79036966,13158201,VAN NESS,AVE,Nob Hill,13158201,LINESTRING,-122.4222498,37.79049793
-122.4225149,37.79128889,13159101,VAN NESS,AVE,Pacific Heights,13159101,LINESTRING,-122.4226363,37.79136918
-122.4225149,37.79128889,13159201,VAN NESS,AVE,Nob Hill,13159201,LINESTRING,-122.4224313,37.79139503
-122.4226942,37.79217464,13160101,VAN NESS,AVE,Pacific Heights,13160101,LINESTRING,-122.4228155,37.79225483
-122.4226942,37.79217464,13160201,VAN NESS,AVE,Nob Hill,13160201,LINESTRING,-122.4226105,37.79228089
-122.4228712,37.79305,13161201,VAN NESS,AVE,Nob Hill,13161201,LINESTRING,-122.4227875,37.79315621
-122.4230488,37.793935,13162101,VAN NESS,AVE,Pacific Heights,13162101,LINESTRING,-122.4231702,37.79401526
-122.4230488,37.793935,13162201,VAN NESS,AVE,Nob Hill,13162201,LINESTRING,-122.4229651,37.79404131
-122.4232271,37.79481736,13163101,VAN NESS,AVE,Pacific Heights,13163101,LINESTRING,-122.4233485,37.79489748
-122.4232271,37.79481736,13163201,VAN NESS,AVE,Nob Hill,13163201,LINESTRING,-122.4231435,37.79492366
-122.4234131,37.79573711,13164101,VAN NESS,AVE,Pacific Heights,13164101,LINESTRING,-122.4235386,37.79583799
-122.4234131,37.79573711,13164201,VAN NESS,AVE,Russian Hill,13164201,LINESTRING,-122.4233327,37.79585994
-122.4236013,37.79669106,13165201,VAN NESS,AVE,Russian Hill,13165201,LINESTRING,-122.4235213,37.79679281
-122.423793,37.79761658,13166101,VAN NESS,AVE,Pacific Heights,13166101,LINESTRING,-122.4239143,37.79769681
-122.423793,37.79761658,13166201,VAN NESS,AVE,Russian Hill,13166201,LINESTRING,-122.4237093,37.79772278
-122.4239821,37.79855245,13167101,VAN NESS,AVE,Cow Hollow,13167101,LINESTRING,-122.4241035,37.79863263
-122.4239821,37.79855245,13167201,VAN NESS,AVE,Russian Hill,13167201,LINESTRING,-122.4238985,37.7986587
-122.4241706,37.79948453,13168201,VAN NESS,AVE,Russian Hill,13168201,LINESTRING,-122.4240869,37.79959078
-122.4243587,37.80041503,13169101,VAN NESS,AVE,Cow Hollow,13169101,LINESTRING,-122.42448,37.80049521
-122.4243587,37.80041503,13169201,VAN NESS,AVE,Russian Hill,13169201,LINESTRING,-122.424275,37.80052127
-122.4245383,37.80130372,13170101,VAN NESS,AVE,Marina,13170101,LINESTRING,-122.4246676,37.80142626
-122.4245383,37.80130372,13170201,VAN NESS,AVE,Russian Hill,13170201,LINESTRING,-122.4244625,37.80145205
-122.4247313,37.80228098,13171201,VAN NESS,AVE,Russian Hill,13171201,LINESTRING,-122.4246476,37.80238671
-122.4249188,37.80320551,13172101,VAN NESS,AVE,Marina,13172101,LINESTRING,-122.4250418,37.80329349
-122.4249188,37.80320551,13172201,VAN NESS,AVE,Russian Hill,13172201,LINESTRING,-122.4248368,37.80331959
-122.4215701,37.78661896,13154201,VAN NESS,AVE,Van Ness - Civic Center,13154201,LINESTRING,-122.4214843,37.7867144
-122.421193,37.78475345,13152201,VAN NESS,AVE,Van Ness - Civic Center,13152201,LINESTRING,-122.4211339,37.78487508
-122.4210084,37.78382412,13151101,VAN NESS,AVE,Van Ness - Civic Center,13151101,LINESTRING,-122.4210982,37.78391523
-122.4206383,37.78196077,13149101,VAN NESS,AVE,Van Ness - Civic Center,13149101,LINESTRING,-122.4207381,37.78205342
-122.4202472,37.7800747,13147101,VAN NESS,AVE,Van Ness - Civic Center,13147101,LINESTRING,-122.4203358,37.78018965
-122.4195063,37.77636887,13144101,VAN NESS,AVE,Van Ness - Civic Center,13144101,LINESTRING,-122.4196034,37.77645662
-122.4252986,37.8050779,13174101,VAN NESS,AVE,Marina,13174101,LINESTRING,-122.4254207,37.80516171
-122.4247313,37.80228098,13171101,VAN NESS,AVE,Marina,13171101,LINESTRING,-122.4248527,37.80236115
-122.4241706,37.79948453,13168101,VAN NESS,AVE,Cow Hollow,13168101,LINESTRING,-122.4242919,37.79956471
-122.4236013,37.79669106,13165101,VAN NESS,AVE,Pacific Heights,13165101,LINESTRING,-122.4237263,37.79676646
-122.4228712,37.79305,13161101,VAN NESS,AVE,Pacific Heights,13161101,LINESTRING,-122.4229925,37.79313024
-122.422329,37.79036966,13158101,VAN NESS,AVE,Pacific Heights,13158101,LINESTRING,-122.4224548,37.79047187
-122.4219486,37.78848964,13156101,VAN NESS,AVE,Van Ness - Civic Center,13156101,LINESTRING,-122.4220699,37.78856978
-122.4251095,37.80414585,13173101,VAN NESS,AVE,Marina,13173101,LINESTRING,-122.425231,37.80422601
-122.4252986,37.8050779,13174201,VAN NESS,AVE,Marina,13174201,LINESTRING,-122.4252153,37.80518587
-122.4192556,37.77514707,13143101,VAN NESS,AVE,Van Ness - Civic Center,13143101,LINESTRING,-122.4193551,37.77523423
-122.4217581,37.78754814,13155101,VAN NESS,AVE,Van Ness - Civic Center,13155101,LINESTRING,-122.4218795,37.78762833
-122.4215597,37.78708725,13154202,VAN NESS,AVE,Van Ness - Civic Center,13154202,LINESTRING,-122.4216367,37.78746795
-122.4217648,37.78706158,13154102,VAN NESS,AVE,Van Ness - Civic Center,13154102,LINESTRING,-122.4218418,37.78744191
-122.4215701,37.78661896,13154101,VAN NESS,AVE,Van Ness - Civic Center,13154101,LINESTRING,-122.4216894,37.78668873
-122.4213734,37.78616616,13153202,VAN NESS,AVE,Van Ness - Civic Center,13153202,LINESTRING,-122.4214466,37.78652798
-122.4213933,37.7856858,13153201,VAN NESS,AVE,Van Ness - Civic Center,13153201,LINESTRING,-122.421298,37.78579354
-122.4213933,37.7856858,13153101,VAN NESS,AVE,Van Ness - Civic Center,13153101,LINESTRING,-122.421503,37.78576764
-122.4212165,37.78523263,13152202,VAN NESS,AVE,Van Ness - Civic Center,13152202,LINESTRING,-122.4212998,37.78559339
-122.4213601,37.78521438,13152102,VAN NESS,AVE,Van Ness - Civic Center,13152102,LINESTRING,-122.4214417,37.78556734
-122.421193,37.78475345,13152101,VAN NESS,AVE,Van Ness - Civic Center,13152101,LINESTRING,-122.4212773,37.78485681
-122.4210175,37.78430273,13151202,VAN NESS,AVE,Van Ness - Civic Center,13151202,LINESTRING,-122.4210993,37.78465347
